[{"OBJECT_NAME":"ONEWEB-0094","OBJECT_ID":"2020-020AC","EPOCH":"2026-05-16T03:47:19.970592","MEAN_MOTION":13.17648993,"ECCENTRICITY":0.0001877,"INCLINATION":87.9172,"RA_OF_ASC_NODE":12.2144,"ARG_OF_PERICENTER":75.2193,"MEAN_ANOMALY":284.9147,"EPHEMERIS_TYPE":0,"CLASSIFICATION_TYPE":"U","NORAD_CAT_ID":45450,"ELEMENT_SET_NO":999,"REV_AT_EPOCH":30209,"BSTAR":9.9591e-05,"MEAN_MOTION_DOT":5.2e-07,"MEAN_MOTION_DDOT":0.0},{"OBJECT_NAME":"ONEWEB-0087","OBJECT_ID":"2020-020AD","EPOCH":"2026-05-16T03:20:27.617856","MEAN_MOTION":13.11420419,"ECCENTRICITY":0.0002104,"INCLINATION":87.8934,"RA_OF_ASC_NODE":27.4121,"ARG_OF_PERICENTER":75.9194,"MEAN_ANOMALY":284.2168,"EPHEMERIS_TYPE":0,"CLASSIFICATION_TYPE":"U","NORAD_CAT_ID":45451,"ELEMENT_SET_NO":999,"REV_AT_EPOCH":29838,"BSTAR":0.0012982,"MEAN_MOTION_DOT":4.73e-06,"MEAN_MOTION_DDOT":0.0},{"OBJECT_NAME":"ONEWEB-0082","OBJECT_ID":"2020-020AE","EPOCH":"2026-05-16T05:05:40.544448","MEAN_MOTION":13.11420368,"ECCENTRICITY":0.0002005,"INCLINATION":87.8928,"RA_OF_ASC_NODE":27.4165,"ARG_OF_PERICENTER":76.7896,"MEAN_ANOMALY":283.3456,"EPHEMERIS_TYPE":0,"CLASSIFICATION_TYPE":"U","NORAD_CAT_ID":45452,"ELEMENT_SET_NO":999,"REV_AT_EPOCH":29848,"BSTAR":0.0011545,"MEAN_MOTION_DOT":4.22e-06,"MEAN_MOTION_DDOT":0.0},{"OBJECT_NAME":"ONEWEB-0050","OBJECT_ID":"2020-020AF","EPOCH":"2026-05-16T05:57:21.760128","MEAN_MOTION":14.90222216,"ECCENTRICITY":0.0006049,"INCLINATION":88.9294,"RA_OF_ASC_NODE":237.5443,"ARG_OF_PERICENTER":92.9827,"MEAN_ANOMALY":267.2095,"EPHEMERIS_TYPE":0,"CLASSIFICATION_TYPE":"U","NORAD_CAT_ID":45453,"ELEMENT_SET_NO":999,"REV_AT_EPOCH":33562,"BSTAR":8.059500000000001e-05,"MEAN_MOTION_DOT":8.03e-06,"MEAN_MOTION_DDOT":0.0},{"OBJECT_NAME":"ONEWEB-0034","OBJECT_ID":"2020-020AG","EPOCH":"2026-05-16T05:47:07.049184","MEAN_MOTION":13.10929946,"ECCENTRICITY":0.0001877,"INCLINATION":87.892,"RA_OF_ASC_NODE":27.4173,"ARG_OF_PERICENTER":79.4613,"MEAN_ANOMALY":280.6726,"EPHEMERIS_TYPE":0,"CLASSIFICATION_TYPE":"U","NORAD_CAT_ID":45454,"ELEMENT_SET_NO":999,"REV_AT_EPOCH":29840,"BSTAR":0.00044977,"MEAN_MOTION_DOT":1.71e-06,"MEAN_MOTION_DDOT":0.0},{"OBJECT_NAME":"ONEWEB-0060","OBJECT_ID":"2020-020AH","EPOCH":"2026-05-16T04:54:39.080736","MEAN_MOTION":13.11420457,"ECCENTRICITY":0.0002659,"INCLINATION":87.8918,"RA_OF_ASC_NODE":27.428,"ARG_OF_PERICENTER":63.9975,"MEAN_ANOMALY":296.1426,"EPHEMERIS_TYPE":0,"CLASSIFICATION_TYPE":"U","NORAD_CAT_ID":45455,"ELEMENT_SET_NO":999,"REV_AT_EPOCH":29835,"BSTAR":-2.8377000000000003e-05,"MEAN_MOTION_DOT":3e-08,"MEAN_MOTION_DDOT":0.0},{"OBJECT_NAME":"ONEWEB-0086","OBJECT_ID":"2020-020AJ","EPOCH":"2026-05-16T04:24:07.624512","MEAN_MOTION":13.11415102,"ECCENTRICITY":0.0001982,"INCLINATION":87.8926,"RA_OF_ASC_NODE":27.425,"ARG_OF_PERICENTER":58.0572,"MEAN_ANOMALY":302.0748,"EPHEMERIS_TYPE":0,"CLASSIFICATION_TYPE":"U","NORAD_CAT_ID":45456,"ELEMENT_SET_NO":999,"REV_AT_EPOCH":29841,"BSTAR":-0.0013551,"MEAN_MOTION_DOT":-4.68e-06,"MEAN_MOTION_DDOT":0.0},{"OBJECT_NAME":"ONEWEB-0088","OBJECT_ID":"2020-020AK","EPOCH":"2026-05-16T05:42:17.303328","MEAN_MOTION":13.1141528,"ECCENTRICITY":0.0002103,"INCLINATION":87.8932,"RA_OF_ASC_NODE":27.3846,"ARG_OF_PERICENTER":90.7361,"MEAN_ANOMALY":269.4007,"EPHEMERIS_TYPE":0,"CLASSIFICATION_TYPE":"U","NORAD_CAT_ID":45457,"ELEMENT_SET_NO":999,"REV_AT_EPOCH":29835,"BSTAR":0.00073775,"MEAN_MOTION_DOT":2.74e-06,"MEAN_MOTION_DDOT":0.0},{"OBJECT_NAME":"ONEWEB-0102","OBJECT_ID":"2020-100A","EPOCH":"2026-05-16T02:44:40.444800","MEAN_MOTION":13.12440423,"ECCENTRICITY":0.0001624,"INCLINATION":87.8957,"RA_OF_ASC_NODE":357.0547,"ARG_OF_PERICENTER":76.576,"MEAN_ANOMALY":283.5549,"EPHEMERIS_TYPE":0,"CLASSIFICATION_TYPE":"U","NORAD_CAT_ID":47258,"ELEMENT_SET_NO":999,"REV_AT_EPOCH":26052,"BSTAR":0.0012378,"MEAN_MOTION_DOT":4.58e-06,"MEAN_MOTION_DDOT":0.0},{"OBJECT_NAME":"ONEWEB-0109","OBJECT_ID":"2020-100B","EPOCH":"2026-05-16T02:56:51.920160","MEAN_MOTION":13.12440657,"ECCENTRICITY":0.0001685,"INCLINATION":87.8969,"RA_OF_ASC_NODE":357.0334,"ARG_OF_PERICENTER":83.4471,"MEAN_ANOMALY":276.6849,"EPHEMERIS_TYPE":0,"CLASSIFICATION_TYPE":"U","NORAD_CAT_ID":47259,"ELEMENT_SET_NO":999,"REV_AT_EPOCH":26035,"BSTAR":0.0011735,"MEAN_MOTION_DOT":4.35e-06,"MEAN_MOTION_DDOT":0.0},{"OBJECT_NAME":"ONEWEB-0110","OBJECT_ID":"2020-100C","EPOCH":"2026-05-16T03:35:54.155904","MEAN_MOTION":13.12441226,"ECCENTRICITY":0.0001849,"INCLINATION":87.8969,"RA_OF_ASC_NODE":357.0126,"ARG_OF_PERICENTER":75.9373,"MEAN_ANOMALY":284.1961,"EPHEMERIS_TYPE":0,"CLASSIFICATION_TYPE":"U","NORAD_CAT_ID":47260,"ELEMENT_SET_NO":999,"REV_AT_EPOCH":26052,"BSTAR":0.0009087499999999999,"MEAN_MOTION_DOT":3.4e-06,"MEAN_MOTION_DDOT":0.0},{"OBJECT_NAME":"ONEWEB-0111","OBJECT_ID":"2020-100D","EPOCH":"2026-05-16T02:30:01.171008","MEAN_MOTION":13.12443111,"ECCENTRICITY":0.0001896,"INCLINATION":87.897,"RA_OF_ASC_NODE":357.0398,"ARG_OF_PERICENTER":82.5297,"MEAN_ANOMALY":277.6047,"EPHEMERIS_TYPE":0,"CLASSIFICATION_TYPE":"U","NORAD_CAT_ID":47261,"ELEMENT_SET_NO":999,"REV_AT_EPOCH":26035,"BSTAR":-0.0011629000000000001,"MEAN_MOTION_DOT":-4.06e-06,"MEAN_MOTION_DDOT":0.0},{"OBJECT_NAME":"ONEWEB-0114","OBJECT_ID":"2020-100E","EPOCH":"2026-05-16T01:24:09.540000","MEAN_MOTION":13.124424,"ECCENTRICITY":0.0001629,"INCLINATION":87.8972,"RA_OF_ASC_NODE":357.0461,"ARG_OF_PERICENTER":90.947,"MEAN_ANOMALY":269.1845,"EPHEMERIS_TYPE":0,"CLASSIFICATION_TYPE":"U","NORAD_CAT_ID":47262,"ELEMENT_SET_NO":999,"REV_AT_EPOCH":26030,"BSTAR":0.0012279,"MEAN_MOTION_DOT":4.54e-06,"MEAN_MOTION_DDOT":0.0},{"OBJECT_NAME":"ONEWEB-0117","OBJECT_ID":"2020-100F","EPOCH":"2026-05-15T21:32:23.044416","MEAN_MOTION":13.12445417,"ECCENTRICITY":0.0001762,"INCLINATION":87.897,"RA_OF_ASC_NODE":357.0701,"ARG_OF_PERICENTER":82.6482,"MEAN_ANOMALY":277.4847,"EPHEMERIS_TYPE":0,"CLASSIFICATION_TYPE":"U","NORAD_CAT_ID":47263,"ELEMENT_SET_NO":999,"REV_AT_EPOCH":26029,"BSTAR":0.0006335199999999999,"MEAN_MOTION_DOT":2.41e-06,"MEAN_MOTION_DDOT":0.0},{"OBJECT_NAME":"ONEWEB-0118","OBJECT_ID":"2020-100G","EPOCH":"2026-05-16T03:50:31.420896","MEAN_MOTION":13.1244338,"ECCENTRICITY":0.000175,"INCLINATION":87.8968,"RA_OF_ASC_NODE":357.0207,"ARG_OF_PERICENTER":94.5969,"MEAN_ANOMALY":265.5359,"EPHEMERIS_TYPE":0,"CLASSIFICATION_TYPE":"U","NORAD_CAT_ID":47264,"ELEMENT_SET_NO":999,"REV_AT_EPOCH":26052,"BSTAR":-8.5315e-05,"MEAN_MOTION_DOT":-1.8e-07,"MEAN_MOTION_DDOT":0.0},{"OBJECT_NAME":"ONEWEB-0119","OBJECT_ID":"2020-100H","EPOCH":"2026-05-16T02:37:19.646688","MEAN_MOTION":13.12441828,"ECCENTRICITY":0.0001794,"INCLINATION":87.8958,"RA_OF_ASC_NODE":357.0501,"ARG_OF_PERICENTER":84.1774,"MEAN_ANOMALY":275.9559,"EPHEMERIS_TYPE":0,"CLASSIFICATION_TYPE":"U","NORAD_CAT_ID":47265,"ELEMENT_SET_NO":999,"REV_AT_EPOCH":26049,"BSTAR":-0.00082446,"MEAN_MOTION_DOT":-2.84e-06,"MEAN_MOTION_DDOT":0.0}]