ONEWEB-0094             
1 45450U 20020AC  26136.15787003  .00000052  00000+0  99591-4 0  9994
2 45450  87.9172  12.2144 0001877  75.2193 284.9147 13.17648993302098
ONEWEB-0087             
1 45451U 20020AD  26136.13920854  .00000473  00000+0  12982-2 0  9990
2 45451  87.8934  27.4121 0002104  75.9194 284.2168 13.11420419298386
ONEWEB-0082             
1 45452U 20020AE  26136.21227482  .00000422  00000+0  11545-2 0  9995
2 45452  87.8928  27.4165 0002005  76.7896 283.3456 13.11420368298480
ONEWEB-0050             
1 45453U 20020AF  26136.24816852  .00000803  00000+0  80595-4 0  9990
2 45453  88.9294 237.5443 0006049  92.9827 267.2095 14.90222216335626
ONEWEB-0034             
1 45454U 20020AG  26136.24105381  .00000171  00000+0  44977-3 0  9990
2 45454  87.8920  27.4173 0001877  79.4613 280.6726 13.10929946298403
ONEWEB-0060             
1 45455U 20020AH  26136.20461899  .00000003  00000+0 -28377-4 0  9998
2 45455  87.8918  27.4280 0002659  63.9975 296.1426 13.11420457298355
ONEWEB-0086             
1 45456U 20020AJ  26136.18342158 -.00000468  00000+0 -13551-2 0  9994
2 45456  87.8926  27.4250 0001982  58.0572 302.0748 13.11415102298410
ONEWEB-0088             
1 45457U 20020AK  26136.23770027  .00000274  00000+0  73775-3 0  9999
2 45457  87.8932  27.3846 0002103  90.7361 269.4007 13.11415280298357
ONEWEB-0102             
1 47258U 20100A   26136.11435700  .00000458  00000+0  12378-2 0  9997
2 47258  87.8957 357.0547 0001624  76.5760 283.5549 13.12440423260522
ONEWEB-0109             
1 47259U 20100B   26136.12282315  .00000435  00000+0  11735-2 0  9992
2 47259  87.8969 357.0334 0001685  83.4471 276.6849 13.12440657260359
ONEWEB-0110             
1 47260U 20100C   26136.14993236  .00000340  00000+0  90875-3 0  9995
2 47260  87.8969 357.0126 0001849  75.9373 284.1961 13.12441226260520
ONEWEB-0111             
1 47261U 20100D   26136.10418022 -.00000406  00000+0 -11629-2 0  9991
2 47261  87.8970 357.0398 0001896  82.5297 277.6047 13.12443111260353
ONEWEB-0114             
1 47262U 20100E   26136.05844375  .00000454  00000+0  12279-2 0  9993
2 47262  87.8972 357.0461 0001629  90.9470 269.1845 13.12442400260304
ONEWEB-0117             
1 47263U 20100F   26135.89748894  .00000241  00000+0  63352-3 0  9997
2 47263  87.8970 357.0701 0001762  82.6482 277.4847 13.12445417260292
ONEWEB-0118             
1 47264U 20100G   26136.16008589 -.00000018  00000+0 -85315-4 0  9997
2 47264  87.8968 357.0207 0001750  94.5969 265.5359 13.12443380260529
ONEWEB-0119             
1 47265U 20100H   26136.10925517 -.00000284  00000+0 -82446-3 0  9997
2 47265  87.8958 357.0501 0001794  84.1774 275.9559 13.12441828260491
